805985 (805985),e,4.0618,206.0096,121.1260,2.475244,0.2530913,0.25415594,80.1861,05/05.0/2025,2000,H18.47,0.15
# From MPO911656
807470 (807470),e,8.8477,152.8496,195.0558,2.614276,0.2331722,0.21925371,282.0261,05/05.0/2025,2000,H17.74,0.15
# From MPO911741
807788 (807788),e,6.5061,178.0175,164.5955,3.110420,0.1796700,0.21048768,151.1777,05/05.0/2025,2000,H18.08,0.15
# From MPO911954
808588 (808588),e,3.6309,269.3546,30.9808,2.350613,0.2734843,0.55357901,327.5993,05/05.0/2025,2000,H18.83,0.15
# From MPO912008
808789 (808789),e,10.5226,343.0988,35.6075,3.973307,0.1244446,0.35273847,287.0787,05/05.0/2025,2000,H16.92,0.15
